STARLINK-2608
1 18365C 21038N   21326.12188827  .00007298  00000-0  48881-3 0  3263
2 18365  53.0540 198.1917 0001817  79.8500 133.8211 15.06401285    19
